ZHONGXING-2E            
1 49062U 21071A   26190.30301964 -.00000277  00000+0  00000+0 0  9991
2 49062   0.0679 243.4622 0001461 259.4288 351.4974  1.00268502 18262
TJS-7                   
1 49115U 21077A   26190.26403814 -.00000110  00000+0  00000+0 0  9994
2 49115   0.3015 264.2101 0003104 112.3069 266.2599  1.00270222  9775
CHINASAT 9B             
1 49125U 21080A   26190.30379965 -.00000299  00000+0  00000+0 0  9991
2 49125   0.0173  83.4819 0002126  59.0382 355.5153  1.00271405 17875
SHIJIAN-21 (SJ-21)      
1 49330U 21094A   26190.32774616 -.00000339  00000+0  00000+0 0  9993
2 49330   5.1623  61.0420 0051631 168.7866 303.1577  1.00281026  5583
SES-17                  
1 49332U 21095A   26189.77143299 -.00000258  00000+0  00000+0 0  9990
2 49332   0.0230  44.4860 0000891  69.7042  23.1428  1.00268746 18070
SYRACUSE 4A             
1 49333U 21095B   26190.22146021  .00000000  00000+0  00000+0 0  9993
2 49333   0.0250  37.9319 0001416  65.5678 308.9080  1.00270946 18165
QZS-1R (MICHIBIKI-1R)   
1 49336U 21096A   26189.63484497 -.00000271  00000+0  00000+0 0  9993
2 49336  37.5026  79.2668 0755133 272.1320 296.0484  1.00247751 17221
ZHONGXING-1D            
1 49505U 21114A   26190.30951968 -.00000323  00000+0  00000+0 0  9998
2 49505   0.0510 242.3948 0000287  32.6157 253.8685  1.00271763 17040
STPSAT-6                
1 49817U 21118A   26190.09756697 -.00000031  00000+0  00000+0 0  9992
2 49817   0.3742  85.1716 0000912 242.8820 242.3599  1.00270001 16791
EXPRESS AMU-7           
1 50001U 21123A   26190.32961469 -.00000229  00000+0  00000+0 0  9995
2 50001   0.0255 284.8047 0000225  70.2425 195.8865  1.00271790 16761
EXPRESS AMU-3           
1 50002U 21123B   26189.91709294 -.00000308  00000+0  00000+0 0  9993
2 50002   0.0098 316.4015 0000206   3.4003  40.1989  1.00275114  7249
TIANLIAN 2-02           
1 50005U 21124A   26190.60275263 -.00000002  00000+0  00000+0 0  9990
2 50005   0.8564  85.7688 0001442 163.1116  66.6277  1.00271041 16846
TURKSAT 5B              
1 50212U 21126A   26190.22076687  .00000160  00000+0  00000+0 0  9993
2 50212   0.0695 338.9720 0002400  14.9398  54.7168  1.00270721 16518
INMARSAT 6-F1           
1 50319U 21128A   26190.30017832 -.00000158  00000+0  00000+0 0  9997
2 50319   0.0120 318.1589 0000164 266.3242 254.5641  1.00269581 16482
SHIYAN-12 01 (SY-12 01) 
1 50321U 21129A   26189.43666000  .00000161  00000+0  00000+0 0  9993
2 50321   3.7260  79.6260 0002673 287.4804 119.1541  1.00048003 16715
SHIYAN-12 02 (SY-12 02) 
1 50322U 21129B   26189.75873867 -.00000339  00000+0  00000+0 0  9998
2 50322   3.7260  79.6227 0003064  67.9841 157.8023  1.00480740 16718
TJS-9                   
1 50574U 21135A   26190.31090634 -.00000285  00000+0  00000+0 0  9991
2 50574   0.0343 119.0473 0002576 308.7851 108.5432  1.00275290 16657
GOES 18                 
1 51850U 22021A   26190.24697481  .00000110  00000+0  00000+0 0  9995
2 51850   0.0093 263.2986 0000556 279.4744  56.3174  1.00271846  6812
ZHONGXING-6D            
1 52255U 22038A   26189.85601941 -.00000339  00000+0  00000+0 0  9998
2 52255   0.0433 249.9756 0000760 284.9735 185.0540  1.00269006 15647
NILESAT 301             
1 52817U 22061A   26190.29975376 -.00000044  00000+0  00000+0 0  9997
2 52817   0.0496 338.4946 0004125  83.5752 326.1291  1.00272749 14958
CMS-02 (GSAT-24)        
1 52903U 22067A   26189.58723568  .00000000  00000+0  00000+0 0  9994
2 52903   0.0186  56.3795 0000751 298.4773 226.0709  1.00270851 14829
MEASAT 3D               
1 52904U 22067B   26190.30171964 -.00000228  00000+0  00000+0 0  9997
2 52904   0.0568 297.9634 0000595 243.3710 306.0149  1.00270273 14875
SES-22                  
1 52933U 22071A   26190.24697481  .00000118  00000+0  00000+0 0  9991
2 52933   0.0243 293.4978 0000906 164.0573 139.5416  1.00269380  7742
WFOV (USA 332)          
1 52940U 22073A   26190.10808656 -.00000351  00000+0  00000+0 0  9994
2 52940   3.7637  78.2516 0001452 218.0022 149.0293  1.00270660 14593
TIANLIAN 2-03           
1 53100U 22078A   26190.28579159  .00000085  00000+0  00000+0 0  9993
2 53100   0.7262  77.4064 0000915 355.2842 328.0228  1.00273644 14760
SBIRS GEO-6 (USA 336)   
1 53355U 22092A   26190.31125301 -.00000276  00000+0  00000+0 0  9994
2 53355   3.2219 317.8330 0001776 150.4934  69.9850  1.00271096 14459
EUTELSAT KONNECT VHTS   
1 53765U 22110A   26190.29975376  .00000030  00000+0  00000+0 0  9999
2 53765   0.0585  98.9257 0002817 343.3699 315.5545  1.00267904  7050
ZHONGXING-1E            
1 53813U 22112A   26190.15724262 -.00000135  00000+0  00000+0 0  9993
2 53813   0.0424 121.8163 0000724 112.5634 190.7112  1.00269458 14066
SES-20                  
1 53960U 22123A   26189.90663904 -.00000086  00000+0  00000+0 0  9999
2 53960   0.0191  65.8890 0001859  27.0010  57.2452  1.00269593 13751
SES-21                  
1 53961U 22123B   26190.26453648  .00000000  00000+0  00000+0 0  9998
2 53961   0.0381  29.1219 0001102  80.4751 141.9183  1.00268184  7432
GALAXY 33 (G-33)        
1 54026U 22128A   26190.26590833  .00000093  00000+0  00000+0 0  9996
2 54026   0.0101 348.5811 0001850 125.3580 135.9990  1.00270292 13967
