OBJECT_NAME,OBJECT_ID,EPOCH,MEAN_MOTION,ECCENTRICITY,INCLINATION,RA_OF_ASC_NODE,ARG_OF_PERICENTER,MEAN_ANOMALY,EPHEMERIS_TYPE,CLASSIFICATION_TYPE,NORAD_CAT_ID,ELEMENT_SET_NO,REV_AT_EPOCH,BSTAR,MEAN_MOTION_DOT,MEAN_MOTION_DDOT
ZHONGXING-2E,2021-071A,2026-07-09T07:16:20.896896,1.00268502,.00014615,0.0679,243.4622,259.4288,351.4974,0,U,49062,999,1826,0,-.277E-5,0
TJS-7,2021-077A,2026-07-09T06:20:12.895296,1.00270222,.0003104,0.3015,264.2101,112.3069,266.2599,0,U,49115,999,977,0,-.11E-5,0
CHINASAT 9B,2021-080A,2026-07-09T07:17:28.289760,1.00271405,.00021269,0.0173,83.4819,59.0382,355.5153,0,U,49125,999,1787,0,-.299E-5,0
SHIJIAN-21 (SJ-21),2021-094A,2026-07-09T07:51:57.268224,1.00281026,.00516313,5.1623,61.0420,168.7866,303.1577,0,U,49330,999,558,0,-.339E-5,0
SES-17,2021-095A,2026-07-08T18:30:51.810336,1.00268746,.00008916,0.0230,44.4860,69.7042,23.1428,0,U,49332,999,1807,0,-.258E-5,0
SYRACUSE 4A,2021-095B,2026-07-09T05:18:54.162144,1.00270946,.00014166,0.0250,37.9319,65.5678,308.9080,0,U,49333,999,1816,0,0,0
QZS-1R (MICHIBIKI-1R),2021-096A,2026-07-08T15:14:10.605408,1.00247751,.07551338,37.5026,79.2668,272.1320,296.0484,0,U,49336,999,1722,0,-.271E-5,0
ZHONGXING-1D,2021-114A,2026-07-09T07:25:42.500352,1.00271763,.00002877,0.0510,242.3948,32.6157,253.8685,0,U,49505,999,1704,0,-.323E-5,0
STPSAT-6,2021-118A,2026-07-09T02:20:29.786208,1.00270001,.00009123,0.3742,85.1716,242.8820,242.3599,0,U,49817,999,1679,0,-.31E-6,0
EXPRESS AMU-7,2021-123A,2026-07-09T07:54:38.709216,1.00271790,.00002253,0.0255,284.8047,70.2425,195.8865,0,U,50001,999,1676,0,-.229E-5,0
EXPRESS AMU-3,2021-123B,2026-07-08T22:00:36.830016,1.00275114,.00002064,0.0098,316.4015,3.4003,40.1989,0,U,50002,999,724,0,-.308E-5,0
TIANLIAN 2-02,2021-124A,2026-07-09T14:27:57.827232,1.00271041,.0001442,0.8564,85.7688,163.1116,66.6277,0,U,50005,999,1684,0,-.2E-7,0
TURKSAT 5B,2021-126A,2026-07-09T05:17:54.257568,1.00270721,.00024004,0.0695,338.9720,14.9398,54.7168,0,U,50212,999,1651,0,.16E-5,0
INMARSAT 6-F1,2021-128A,2026-07-09T07:12:15.406848,1.00269581,.00001648,0.0120,318.1589,266.3242,254.5641,0,U,50319,999,1648,0,-.158E-5,0
SHIYAN-12 01 (SY-12 01),2021-129A,2026-07-08T10:28:47.424000,1.00048003,.0002673,3.7260,79.6260,287.4804,119.1541,0,U,50321,999,1671,0,.161E-5,0
SHIYAN-12 02 (SY-12 02),2021-129B,2026-07-08T18:12:35.021088,1.00480740,.0003064,3.7260,79.6227,67.9841,157.8023,0,U,50322,999,1671,0,-.339E-5,0
TJS-9,2021-135A,2026-07-09T07:27:42.307776,1.00275290,.00025768,0.0343,119.0473,308.7851,108.5432,0,U,50574,999,1665,0,-.285E-5,0
GOES 18,2022-021A,2026-07-09T05:55:38.623584,1.00271846,.00005569,0.0093,263.2986,279.4744,56.3174,0,U,51850,999,681,0,.11E-5,0
ZHONGXING-6D,2022-038A,2026-07-08T20:32:40.077024,1.00269006,.000076,0.0433,249.9756,284.9735,185.0540,0,U,52255,999,1564,0,-.339E-5,0
NILESAT 301,2022-061A,2026-07-09T07:11:38.724864,1.00272749,.00041256,0.0496,338.4946,83.5752,326.1291,0,U,52817,999,1495,0,-.44E-6,0
CMS-02 (GSAT-24),2022-067A,2026-07-08T14:05:37.162752,1.00270851,.00007515,0.0186,56.3795,298.4773,226.0709,0,U,52903,999,1482,0,0,0
MEASAT 3D,2022-067B,2026-07-09T07:14:28.576896,1.00270273,.0000595,0.0568,297.9634,243.3710,306.0149,0,U,52904,999,1487,0,-.228E-5,0
SES-22,2022-071A,2026-07-09T05:55:38.623584,1.00269380,.00009066,0.0243,293.4978,164.0573,139.5416,0,U,52933,999,774,0,.118E-5,0
WFOV (USA 332),2022-073A,2026-07-09T02:35:38.678784,1.00270660,.00014525,3.7637,78.2516,218.0022,149.0293,0,U,52940,999,1459,0,-.351E-5,0
TIANLIAN 2-03,2022-078A,2026-07-09T06:51:32.393376,1.00273644,.00009155,0.7262,77.4064,355.2842,328.0228,0,U,53100,999,1476,0,.85E-6,0
SBIRS GEO-6 (USA 336),2022-092A,2026-07-09T07:28:12.260064,1.00271096,.00017767,3.2219,317.8330,150.4934,69.9850,0,U,53355,999,1445,0,-.276E-5,0
EUTELSAT KONNECT VHTS,2022-110A,2026-07-09T07:11:38.724864,1.00267904,.00028175,0.0585,98.9257,343.3699,315.5545,0,U,53765,999,705,0,.3E-6,0
ZHONGXING-1E,2022-112A,2026-07-09T03:46:25.762368,1.00269458,.00007247,0.0424,121.8163,112.5634,190.7112,0,U,53813,999,1406,0,-.135E-5,0
SES-20,2022-123A,2026-07-08T21:45:33.613056,1.00269593,.00018598,0.0191,65.8890,27.0010,57.2452,0,U,53960,999,1375,0,-.86E-6,0
SES-21,2022-123B,2026-07-09T06:20:55.951872,1.00268184,.00011025,0.0381,29.1219,80.4751,141.9183,0,U,53961,999,743,0,0,0
GALAXY 33 (G-33),2022-128A,2026-07-09T06:22:54.479712,1.00270292,.00018508,0.0101,348.5811,125.3580,135.9990,0,U,54026,999,1396,0,.93E-6,0
